[{"OBJECT_NAME":"PRAETORIAN SDA_609","OBJECT_ID":"2025-203H","EPOCH":"2026-03-09T13:17:17.896704","MEAN_MOTION":13.84314664,"ECCENTRICITY":0.0008251,"INCLINATION":81.302,"RA_OF_ASC_NODE":103.0603,"ARG_OF_PERICENTER":102.7158,"MEAN_ANOMALY":257.4922,"EPHEMERIS_TYPE":0,"CLASSIFICATION_TYPE":"U","NORAD_CAT_ID":65572,"ELEMENT_SET_NO":999,"REV_AT_EPOCH":2491,"BSTAR":0.00016281,"MEAN_MOTION_DOT":1.94e-6,"MEAN_MOTION_DDOT":0},{"OBJECT_NAME":"THOR ABLESTAR DEB","OBJECT_ID":"1961-015BZ","EPOCH":"2026-03-09T13:28:49.232352","MEAN_MOTION":13.95705171,"ECCENTRICITY":0.0066222,"INCLINATION":66.8396,"RA_OF_ASC_NODE":114.2922,"ARG_OF_PERICENTER":160.0211,"MEAN_ANOMALY":200.3487,"EPHEMERIS_TYPE":0,"CLASSIFICATION_TYPE":"U","NORAD_CAT_ID":244,"ELEMENT_SET_NO":999,"REV_AT_EPOCH":28523,"BSTAR":0.00016365,"MEAN_MOTION_DOT":1.5e-6,"MEAN_MOTION_DDOT":0}]
